*******************************************************************************
JPL/HORIZONS               2043 Ortutay (1936 TH)          2023-Sep-04 11:15:39
Rec #:    2043 (+COV) Soln.date: 2023-Aug-22_15:30:39   # obs: 4070 (1908-2023)
 
IAU76/J2000 helio. ecliptic osc. elements (au, days, deg., period=Julian yrs):
 
  EPOCH=  2457519.5 ! 2016-May-11.00 (TDB)         Residual RMS= .26172
   EC= .1106713132681965   QR= 2.762932990249002   TP= 2458428.9628486601
   OM= 321.2400395579575   W=  60.26109003577056   IN= 3.074381775105294
   A= 3.106762473166712    MA= 196.3081862309604   ADIST= 3.450591956084422
   PER= 5.47609            N= .179987356           ANGMOM= .030134181
   DAN= 2.90901            DDN= 3.24696            L= 21.4655729
   B= 2.6691544            MOID= 1.76586998        TP= 2018-Nov-06.4628486601
 
Asteroid physical parameters (km, seconds, rotational period in hours):
   GM= n.a.                RAD= 24.23              ROTPER= 7.7475
   H= 10.95                G= .150                 B-V= n.a.
                           ALBEDO= .040            STYP= n.a.

ASTEROID comments: 
1: soln ref.= JPL#55, OCC=0
2: source=ORB
*******************************************************************************


*******************************************************************************
Ephemeris / API_USER Mon Sep  4 11:15:39 2023 Pasadena, USA      / Horizons
*******************************************************************************
Target body name: 2043 Ortutay (1936 TH)          {source: JPL#55}
Center body name: Solar System Barycenter (0)     {source: DE441}
Center-site name: BODY CENTER
*******************************************************************************
Start time      : A.D. 2023-Aug-12 00:00:00.0000 TDB
Stop  time      : A.D. 2023-Aug-13 00:00:00.0000 TDB
Step-size       : 2880 minutes
*******************************************************************************
Center geodetic : 0.0, 0.0, 0.0                   {E-lon(deg),Lat(deg),Alt(km)}
Center cylindric: 0.0, 0.0, 0.0                   {E-lon(deg),Dxy(km),Dz(km)}
Center radii    : (undefined)
Small perturbers: Yes                             {source: SB441-N16}
Output units    : KM-S
Calendar mode   : Mixed Julian/Gregorian
Output type     : GEOMETRIC cartesian states
Output format   : 2 (position and velocity)
Reference frame : Ecliptic of J2000.0
*******************************************************************************
Initial IAU76/J2000 heliocentric ecliptic osculating elements (au, days, deg.):
  EPOCH=  2457519.5 ! 2016-May-11.00 (TDB)         Residual RMS= .26172        
   EC= .1106713132681965   QR= 2.762932990249002   TP= 2458428.9628486601      
   OM= 321.2400395579575   W=  60.26109003577056   IN= 3.074381775105294       
  Equivalent ICRF heliocentric cartesian coordinates (au, au/d):
   X=-2.825730768962571E+00  Y=-1.721241491707143E+00  Z=-9.389490014470105E-01
  VX= 5.189525506922565E-03 VY=-6.431629959200668E-03 VZ=-2.920657455797797E-03
Asteroid physical parameters (km, seconds, rotational period in hours):        
   GM= n.a.                RAD= 24.23              ROTPER= 7.7475              
   H= 10.95                G= .150                 B-V= n.a.                   
                           ALBEDO= .040            STYP= n.a.                  
*******************************************************************************
JDTDB
   X     Y     Z
   VX    VY    VZ
*******************************************************************************
$$SOE
2460168.500000000 = A.D. 2023-Aug-12 00:00:00.0000 TDB 
 X = 3.498986851542837E+08 Y =-2.516519816274545E+08 Z = 1.339246722949088E+06
 VX= 9.186465946900750E+00 VY= 1.559221984940298E+01 VZ= 9.622299170762894E-01
$$EOE
*******************************************************************************
 
TIME

  Barycentric Dynamical Time ("TDB" or T_eph) output was requested. This
continuous coordinate time is equivalent to the relativistic proper time
of a clock at rest in a reference frame co-moving with the solar system
barycenter but outside the system's gravity well. It is the independent
variable in the solar system relativistic equations of motion.

  TDB runs at a uniform rate of one SI second per second and is independent
of irregularities in Earth's rotation.
 
CALENDAR SYSTEM

  Mixed calendar mode was active such that calendar dates after AD 1582-Oct-15
(if any) are in the modern Gregorian system. Dates prior to 1582-Oct-5 (if any)
are in the Julian calendar system, which is automatically extended for dates
prior to its adoption on 45-Jan-1 BC.  The Julian calendar is useful for
matching historical dates. The Gregorian calendar more accurately corresponds
to the Earth's orbital motion and seasons. A "Gregorian-only" calendar mode is
available if such physical events are the primary interest.

REFERENCE FRAME AND COORDINATES

  Ecliptic at the standard reference epoch

    Reference epoch: J2000.0
    X-Y plane: adopted Earth orbital plane at the reference epoch
               Note: IAU76 obliquity of 84381.448 arcseconds wrt ICRF X-Y plane
    X-axis   : ICRF
    Z-axis   : perpendicular to the X-Y plane in the directional (+ or -) sense
               of Earth's north pole at the reference epoch.

  Symbol meaning:

    JDTDB    Julian Day Number, Barycentric Dynamical Time
      X      X-component of position vector (km)
      Y      Y-component of position vector (km)
      Z      Z-component of position vector (km)
      VX     X-component of velocity vector (km/sec)                           
      VY     Y-component of velocity vector (km/sec)                           
      VZ     Z-component of velocity vector (km/sec)                           

ABERRATIONS AND CORRECTIONS

 Geometric state vectors have NO corrections or aberrations applied.

Computations by ...

    Solar System Dynamics Group, Horizons On-Line Ephemeris System
    4800 Oak Grove Drive, Jet Propulsion Laboratory
    Pasadena, CA  91109   USA

    General site: https://ssd.jpl.nasa.gov/
    Mailing list: https://ssd.jpl.nasa.gov/email_list.html
    System news : https://ssd.jpl.nasa.gov/horizons/news.html
    User Guide  : https://ssd.jpl.nasa.gov/horizons/manual.html
    Connect     : browser        https://ssd.jpl.nasa.gov/horizons/app.html#/x
                  API            https://ssd-api.jpl.nasa.gov/doc/horizons.html
                  command-line   telnet ssd.jpl.nasa.gov 6775
                  e-mail/batch   https://ssd.jpl.nasa.gov/ftp/ssd/hrzn_batch.txt
                  scripts        https://ssd.jpl.nasa.gov/ftp/ssd/SCRIPTS
    Author      : Jon.D.Giorgini@jpl.nasa.gov
*******************************************************************************
